{"fetched_at":"2026-07-18T06:27:50.593Z","source":"https://celestrak.org/NORAD/elements/gp.php?GROUP=spire&FORMAT=JSON","constellation":"spire","records":[{"OBJECT_NAME":"LEMUR-1","OBJECT_ID":"2014-033AL","EPOCH":"2026-07-17T21:05:27.205440","CLASSIFICATION_TYPE":"U","MEAN_MOTION":14.85341275,"ECCENTRICITY":0.00475062,"INCLINATION":97.7912,"RA_OF_ASC_NODE":348.0098,"ARG_OF_PERICENTER":339.0298,"MEAN_ANOMALY":20.8968,"EPHEMERIS_TYPE":0,"NORAD_CAT_ID":40044,"ELEMENT_SET_NO":999,"REV_AT_EPOCH":65002,"BSTAR":0.000088758666,"MEAN_MOTION_DOT":0.00000722,"MEAN_MOTION_DDOT":0},{"OBJECT_NAME":"LEMUR-2-GREENBERG","OBJECT_ID":"2017-042N","EPOCH":"2026-07-17T11:07:13.333728","CLASSIFICATION_TYPE":"U","MEAN_MOTION":15.32196006,"ECCENTRICITY":0.0007286,"INCLINATION":97.3832,"RA_OF_ASC_NODE":18.9701,"ARG_OF_PERICENTER":249.8308,"MEAN_ANOMALY":110.2151,"EPHEMERIS_TYPE":0,"NORAD_CAT_ID":42837,"ELEMENT_SET_NO":999,"REV_AT_EPOCH":49302,"BSTAR":0.0003003,"MEAN_MOTION_DOT":0.00009265,"MEAN_MOTION_DDOT":0},{"OBJECT_NAME":"LEMUR-2-ANDIS","OBJECT_ID":"2017-042P","EPOCH":"2026-07-17T22:36:08.323200","CLASSIFICATION_TYPE":"U","MEAN_MOTION":15.35993587,"ECCENTRICITY":0.00073256,"INCLINATION":97.3687,"RA_OF_ASC_NODE":19.7422,"ARG_OF_PERICENTER":246.7167,"MEAN_ANOMALY":113.3306,"EPHEMERIS_TYPE":0,"NORAD_CAT_ID":42838,"ELEMENT_SET_NO":999,"REV_AT_EPOCH":49317,"BSTAR":0.00035163533,"MEAN_MOTION_DOT":0.00012258,"MEAN_MOTION_DDOT":0},{"OBJECT_NAME":"LEMUR-2-MONSON","OBJECT_ID":"2017-042Q","EPOCH":"2026-07-17T11:21:11.831904","CLASSIFICATION_TYPE":"U","MEAN_MOTION":15.28788408,"ECCENTRICITY":0.0005447,"INCLINATION":97.4093,"RA_OF_ASC_NODE":18.9043,"ARG_OF_PERICENTER":235.4032,"MEAN_ANOMALY":124.6694,"EPHEMERIS_TYPE":0,"NORAD_CAT_ID":42839,"ELEMENT_SET_NO":999,"REV_AT_EPOCH":49279,"BSTAR":0.00026317,"MEAN_MOTION_DOT":0.00007291,"MEAN_MOTION_DDOT":0},{"OBJECT_NAME":"LEMUR-2-FURIAUS","OBJECT_ID":"2017-042R","EPOCH":"2026-07-17T22:26:45.156768","CLASSIFICATION_TYPE":"U","MEAN_MOTION":15.31185432,"ECCENTRICITY":0.00057566,"INCLINATION":97.3784,"RA_OF_ASC_NODE":17.3261,"ARG_OF_PERICENTER":317.6952,"MEAN_ANOMALY":42.3844,"EPHEMERIS_TYPE":0,"NORAD_CAT_ID":42840,"ELEMENT_SET_NO":999,"REV_AT_EPOCH":49291,"BSTAR":0.00031801412,"MEAN_MOTION_DOT":0.00009509,"MEAN_MOTION_DDOT":0},{"OBJECT_NAME":"LEMUR-2-PETERG","OBJECT_ID":"2017-042S","EPOCH":"2026-07-17T22:39:42.685056","CLASSIFICATION_TYPE":"U","MEAN_MOTION":15.35090809,"ECCENTRICITY":0.00034733,"INCLINATION":97.3997,"RA_OF_ASC_NODE":24.0528,"ARG_OF_PERICENTER":208.7631,"MEAN_ANOMALY":151.3422,"EPHEMERIS_TYPE":0,"NORAD_CAT_ID":42841,"ELEMENT_SET_NO":999,"REV_AT_EPOCH":49315,"BSTAR":0.00032678133,"MEAN_MOTION_DOT":0.00011052,"MEAN_MOTION_DDOT":0},{"OBJECT_NAME":"LEMUR-2-DEMBITZ","OBJECT_ID":"2017-042T","EPOCH":"2026-07-17T05:40:03.761760","CLASSIFICATION_TYPE":"U","MEAN_MOTION":15.31146418,"ECCENTRICITY":0.0005078,"INCLINATION":97.383,"RA_OF_ASC_NODE":19.6761,"ARG_OF_PERICENTER":264.8229,"MEAN_ANOMALY":95.2433,"EPHEMERIS_TYPE":0,"NORAD_CAT_ID":42842,"ELEMENT_SET_NO":999,"REV_AT_EPOCH":49294,"BSTAR":0.00029729,"MEAN_MOTION_DOT":0.00008872,"MEAN_MOTION_DDOT":0},{"OBJECT_NAME":"LEMUR-2-ZACHARY","OBJECT_ID":"2017-042W","EPOCH":"2026-07-17T19:45:29.229408","CLASSIFICATION_TYPE":"U","MEAN_MOTION":15.52880963,"ECCENTRICITY":0.00027286,"INCLINATION":97.3574,"RA_OF_ASC_NODE":31.1688,"ARG_OF_PERICENTER":232.217,"MEAN_ANOMALY":127.8837,"EPHEMERIS_TYPE":0,"NORAD_CAT_ID":42845,"ELEMENT_SET_NO":999,"REV_AT_EPOCH":49395,"BSTAR":0.00052616192,"MEAN_MOTION_DOT":0.00032659,"MEAN_MOTION_DDOT":0},{"OBJECT_NAME":"LEMUR-2-AMANDA-SVANTE","OBJECT_ID":"2021-034B","EPOCH":"2026-07-17T20:40:04.846944","CLASSIFICATION_TYPE":"U","MEAN_MOTION":15.36062044,"ECCENTRICITY":0.00046799,"INCLINATION":97.5746,"RA_OF_ASC_NODE":277.9949,"ARG_OF_PERICENTER":136.5026,"MEAN_ANOMALY":223.6587,"EPHEMERIS_TYPE":0,"NORAD_CAT_ID":48269,"ELEMENT_SET_NO":999,"REV_AT_EPOCH":28576,"BSTAR":0.00052959896,"MEAN_MOTION_DOT":0.00018546,"MEAN_MOTION_DDOT":0},{"OBJECT_NAME":"LEMUR-2-SPECIAL-K","OBJECT_ID":"2021-034F","EPOCH":"2026-07-17T19:27:52.161696","CLASSIFICATION_TYPE":"U","MEAN_MOTION":15.75648684,"ECCENTRICITY":0.00062746,"INCLINATION":97.5642,"RA_OF_ASC_NODE":288.1363,"ARG_OF_PERICENTER":213.23,"MEAN_ANOMALY":146.8571,"EPHEMERIS_TYPE":0,"NORAD_CAT_ID":48273,"ELEMENT_SET_NO":999,"REV_AT_EPOCH":28649,"BSTAR":0.0011131553,"MEAN_MOTION_DOT":0.00172877,"MEAN_MOTION_DDOT":0},{"OBJECT_NAME":"LEMUR-2-EMBRIONOVIS","OBJECT_ID":"2023-084AQ","EPOCH":"2026-07-17T21:53:27.068640","CLASSIFICATION_TYPE":"U","MEAN_MOTION":15.38274237,"ECCENTRICITY":0.00085829,"INCLINATION":97.633,"RA_OF_ASC_NODE":344.3137,"ARG_OF_PERICENTER":196.088,"MEAN_ANOMALY":164.0093,"EPHEMERIS_TYPE":0,"NORAD_CAT_ID":56970,"ELEMENT_SET_NO":999,"REV_AT_EPOCH":17240,"BSTAR":0.00021443027,"MEAN_MOTION_DOT":0.00008008,"MEAN_MOTION_DDOT":0},{"OBJECT_NAME":"LEMUR-2-DEVERILL-M-T","OBJECT_ID":"2023-100F","EPOCH":"2026-07-17T13:38:14.870688","CLASSIFICATION_TYPE":"U","MEAN_MOTION":15.41163271,"ECCENTRICITY":0.0004715,"INCLINATION":99.4446,"RA_OF_ASC_NODE":246.1369,"ARG_OF_PERICENTER":287.0289,"MEAN_ANOMALY":73.0435,"EPHEMERIS_TYPE":0,"NORAD_CAT_ID":57391,"ELEMENT_SET_NO":999,"REV_AT_EPOCH":16592,"BSTAR":0.00033582,"MEAN_MOTION_DOT":0.00013814,"MEAN_MOTION_DDOT":0},{"OBJECT_NAME":"LEMUR-2-BASS","OBJECT_ID":"2023-174D","EPOCH":"2026-07-17T19:23:38.763456","CLASSIFICATION_TYPE":"U","MEAN_MOTION":15.44047545,"ECCENTRICITY":0.00075007,"INCLINATION":97.3843,"RA_OF_ASC_NODE":283.9689,"ARG_OF_PERICENTER":70.2328,"MEAN_ANOMALY":289.9728,"EPHEMERIS_TYPE":0,"NORAD_CAT_ID":58259,"ELEMENT_SET_NO":999,"REV_AT_EPOCH":15008,"BSTAR":0.00021474844,"MEAN_MOTION_DOT":0.00009724,"MEAN_MOTION_DDOT":0},{"OBJECT_NAME":"LEMUR-2-JK0903EM1407","OBJECT_ID":"2023-174CJ","EPOCH":"2026-07-17T19:47:56.756544","CLASSIFICATION_TYPE":"U","MEAN_MOTION":15.53156673,"ECCENTRICITY":0.00033659,"INCLINATION":97.3921,"RA_OF_ASC_NODE":290.1925,"ARG_OF_PERICENTER":23.2594,"MEAN_ANOMALY":336.8811,"EPHEMERIS_TYPE":0,"NORAD_CAT_ID":58336,"ELEMENT_SET_NO":999,"REV_AT_EPOCH":15048,"BSTAR":0.00025490398,"MEAN_MOTION_DOT":0.00015897,"MEAN_MOTION_DDOT":0},{"OBJECT_NAME":"LEMUR-2-MJR092620","OBJECT_ID":"2023-174CN","EPOCH":"2026-07-17T20:23:46.594176","CLASSIFICATION_TYPE":"U","MEAN_MOTION":15.45922341,"ECCENTRICITY":0.00050762,"INCLINATION":97.3972,"RA_OF_ASC_NODE":289.4672,"ARG_OF_PERICENTER":20.9048,"MEAN_ANOMALY":339.2408,"EPHEMERIS_TYPE":0,"NORAD_CAT_ID":58340,"ELEMENT_SET_NO":999,"REV_AT_EPOCH":15038,"BSTAR":0.00022823625,"MEAN_MOTION_DOT":0.00011019,"MEAN_MOTION_DDOT":0},{"OBJECT_NAME":"LEMUR-2-NIMBUS2000","OBJECT_ID":"2024-022A","EPOCH":"2026-07-17T12:59:04.520256","CLASSIFICATION_TYPE":"U","MEAN_MOTION":15.4117618,"ECCENTRICITY":0.000852,"INCLINATION":97.4077,"RA_OF_ASC_NODE":48.9446,"ARG_OF_PERICENTER":20.8268,"MEAN_ANOMALY":339.3324,"EPHEMERIS_TYPE":0,"NORAD_CAT_ID":58899,"ELEMENT_SET_NO":999,"REV_AT_EPOCH":13694,"BSTAR":0.00028409,"MEAN_MOTION_DOT":0.00011714,"MEAN_MOTION_DDOT":0}]}
