LEMUR-1                 
1 40044U 14033AL  26198.87878710  .00000722  00000+0  88759-4 0  9996
2 40044  97.7912 348.0098 0047506 339.0298  20.8968 14.85341275650023
LEMUR-2-GREENBERG       
1 42837U 17042N   26198.46334877  .00009265  00000+0  30030-3 0  9996
2 42837  97.3832  18.9701 0007286 249.8308 110.2151 15.32196006493023
LEMUR-2-ANDIS           
1 42838U 17042P   26198.94176300  .00012258  00000+0  35164-3 0  9994
2 42838  97.3687  19.7422 0007325 246.7167 113.3306 15.35993587493178
LEMUR-2-MONSON          
1 42839U 17042Q   26198.47305361  .00007291  00000+0  26317-3 0  9995
2 42839  97.4093  18.9043 0005447 235.4032 124.6694 15.28788408492798
LEMUR-2-FURIAUS         
1 42840U 17042R   26198.93524487  .00009509  00000+0  31801-3 0  9998
2 42840  97.3784  17.3261 0005756 317.6952  42.3844 15.31185432492917
LEMUR-2-PETERG          
1 42841U 17042S   26198.94424404  .00011052  00000+0  32678-3 0  9997
2 42841  97.3997  24.0528 0003473 208.7631 151.3422 15.35090809493150
LEMUR-2-DEMBITZ         
1 42842U 17042T   26198.23615465  .00008872  00000+0  29729-3 0  9998
2 42842  97.3830  19.6761 0005078 264.8229  95.2433 15.31146418492943
LEMUR-2-ZACHARY         
1 42845U 17042W   26198.82325497  .00032659  00000+0  52616-3 0  9990
2 42845  97.3574  31.1688 0002728 232.2170 127.8837 15.52880963493956
LEMUR-2-AMANDA-SVANTE   
1 48269U 21034B   26198.86116721  .00018546  00000+0  52960-3 0  9995
2 48269  97.5746 277.9949 0004679 136.5026 223.6587 15.36062044285767
LEMUR-2-SPECIAL-K       
1 48273U 21034F   26198.81102039  .00172877  00000+0  11132-2 0  9995
2 48273  97.5642 288.1363 0006274 213.2300 146.8571 15.75648684286495
LEMUR-2-EMBRIONOVIS     
1 56970U 23084AQ  26198.91211885  .00008008  00000+0  21443-3 0  9997
2 56970  97.6330 344.3137 0008582 196.0880 164.0093 15.38274237172406
LEMUR-2-DEVERILL-M-T    
1 57391U 23100F   26198.56822767  .00013814  00000+0  33582-3 0  9990
2 57391  99.4446 246.1369 0004715 287.0289  73.0435 15.41163271165923
LEMUR-2-BASS            
1 58259U 23174D   26198.80808754  .00009724  00000+0  21475-3 0  9995
2 58259  97.3843 283.9689 0007500  70.2328 289.9728 15.44047545150082
LEMUR-2-JK0903EM1407    
1 58336U 23174CJ  26198.82496246  .00015897  00000+0  25490-3 0  9991
2 58336  97.3921 290.1925 0003365  23.2594 336.8811 15.53156673150488
LEMUR-2-MJR092620       
1 58340U 23174CN  26198.84984484  .00011019  00000+0  22824-3 0  9994
2 58340  97.3972 289.4672 0005076  20.9048 339.2408 15.45922341150380
LEMUR-2-NIMBUS2000      
1 58899U 24022A   26198.54102454  .00011714  00000+0  28409-3 0  9999
2 58899  97.4077  48.9446 0008520  20.8268 339.3324 15.41176180136945
